{"type": "FeatureCollection", "features": [ {"type": "Feature", "properties": {"norad_id": 34303, "name": "COSMOS 2251 DEB", "group": "cosmos-2251-debris", "lat": -41.74105659043574, "lon": -100.15296195699318, "alt_km": 724.1711714203911, "timestamp": "2025-12-19T18:58:41.979954+00:00", "meta": {"OBJECT_NAME": "COSMOS 2251 DEB", "OBJECT_ID": "1993-036MZ", "EPOCH": "2025-12-19T04:53:32.563104", "MEAN_MOTION": 14.54534064, "ECCENTRICITY": 0.0135329, "INCLINATION": 74.006, "RA_OF_ASC_NODE": 275.7871, "ARG_OF_PERICENTER": 52.5074, "MEAN_ANOMALY": 73.2659, "EPHEMERIS_TYPE": 0, "CLASSIFICATION_TYPE": "U", "NORAD_CAT_ID": 34303, "ELEMENT_SET_NO": 999, "REV_AT_EPOCH": 88056, "BSTAR": 0.0010697275, "MEAN_MOTION_DOT": 5.128e-05, "MEAN_MOTION_DDOT": 0}, "tle": {"line1": "1 34303U 93036MZ  25353.20384911  .00005128  00000+0  10697-2 0  9990", "line2": "2 34303  74.0060 275.7871 0135329  52.5074  73.2659 14.54534064880560"}}, "geometry": {"type": "Point", "coordinates": [-100.15296195699318, -41.74105659043574]}}, {"type": "Feature", "properties": {"norad_id": 34304, "name": "COSMOS 2251 DEB", "group": "cosmos-2251-debris", "lat": 8.8964580597052, "lon": 112.16106769618334, "alt_km": 816.7245683680576, "timestamp": "2025-12-19T18:58:41.979963+00:00", "meta": {"OBJECT_NAME": "COSMOS 2251 DEB", "OBJECT_ID": "1993-036NA", "EPOCH": "2025-12-18T18:35:44.645856", "MEAN_MOTION": 14.37914931, "ECCENTRICITY": 0.01289999, "INCLINATION": 74.0134, "RA_OF_ASC_NODE": 111.4624, "ARG_OF_PERICENTER": 248.028, "MEAN_ANOMALY": 263.189, "EPHEMERIS_TYPE": 0, "CLASSIFICATION_TYPE": "U", "NORAD_CAT_ID": 34304, "ELEMENT_SET_NO": 999, "REV_AT_EPOCH": 87383, "BSTAR": 0.0011783683, "MEAN_MOTION_DOT": 3.891e-05, "MEAN_MOTION_DDOT": 0}, "tle": {"line1": "1 34304U 93036NA  25352.77482229  .00003891  00000+0  11784-2 0  9996", "line2": "2 34304  74.0134 111.4624 0128999 248.0280 263.1890 14.37914931873836"}}, "geometry": {"type": "Point", "coordinates": [112.16106769618334, 8.8964580597052]}}, {"type": "Feature", "properties": {"norad_id": 34307, "name": "COSMOS 2251 DEB", "group": "cosmos-2251-debris", "lat": -69.81138141896817, "lon": 172.83776381746034, "alt_km": 1227.9206443630083, "timestamp": "2025-12-19T18:58:41.979974+00:00", "meta": {"OBJECT_NAME": "COSMOS 2251 DEB", "OBJECT_ID": "1993-036ND", "EPOCH": "2025-12-19T05:40:21.172224", "MEAN_MOTION": 13.54329892, "ECCENTRICITY": 0.03918431, "INCLINATION": 74.0534, "RA_OF_ASC_NODE": 302.69, "ARG_OF_PERICENTER": 132.2151, "MEAN_ANOMALY": 299.4871, "EPHEMERIS_TYPE": 0, "CLASSIFICATION_TYPE": "U", "NORAD_CAT_ID": 34307, "ELEMENT_SET_NO": 999, "REV_AT_EPOCH": 82950, "BSTAR": 0.00050628, "MEAN_MOTION_DOT": 5.44e-06, "MEAN_MOTION_DDOT": 0}, "tle": {"line1": "1 34307U 93036ND  25353.23635616  .00000544  00000+0  50628-3 0  9994", "line2": "2 34307  74.0534 302.6900 0391843 132.2151 299.4871 13.54329892829505"}}, "geometry": {"type": "Point", "coordinates": [172.83776381746034, -69.81138141896817]}}, {"type": "Feature", "properties": {"norad_id": 34313, "name": "COSMOS 2251 DEB", "group": "cosmos-2251-debris", "lat": -73.08596394891148, "lon": -140.3148527546405, "alt_km": 519.3423441890172, "timestamp": "2025-12-19T18:58:41.979984+00:00", "meta": {"OBJECT_NAME": "COSMOS 2251 DEB", "OBJECT_ID": "1993-036NK", "EPOCH": "2025-12-19T05:08:07.172160", "MEAN_MOTION": 15.20167674, "ECCENTRICITY": 0.00117596, "INCLINATION": 73.9716, "RA_OF_ASC_NODE": 291.8749, "ARG_OF_PERICENTER": 71.0703, "MEAN_ANOMALY": 289.1768, "EPHEMERIS_TYPE": 0, "CLASSIFICATION_TYPE": "U", "NORAD_CAT_ID": 34313, "ELEMENT_SET_NO": 999, "REV_AT_EPOCH": 89163, "BSTAR": 0.0029328282, "MEAN_MOTION_DOT": 0.0006414, "MEAN_MOTION_DDOT": 0}, "tle": {"line1": "1 34313U 93036NK  25353.21397190  .00064140  00000+0  29328-2 0  9995", "line2": "2 34313  73.9716 291.8749 0011759  71.0703 289.1768 15.20167674891637"}}, "geometry": {"type": "Point", "coordinates": [-140.3148527546405, -73.08596394891148]}}, {"type": "Feature", "properties": {"norad_id": 34314, "name": "COSMOS 2251 DEB", "group": "cosmos-2251-debris", "lat": -41.17815331211452, "lon": 130.33097462910203, "alt_km": 914.4921663118557, "timestamp": "2025-12-19T18:58:41.979994+00:00", "meta": {"OBJECT_NAME": "COSMOS 2251 DEB", "OBJECT_ID": "1993-036NL", "EPOCH": "2025-12-19T06:50:09.004416", "MEAN_MOTION": 14.17438356, "ECCENTRICITY": 0.01031464, "INCLINATION": 74.0058, "RA_OF_ASC_NODE": 296.7029, "ARG_OF_PERICENTER": 40.8278, "MEAN_ANOMALY": 121.7164, "EPHEMERIS_TYPE": 0, "CLASSIFICATION_TYPE": "U", "NORAD_CAT_ID": 34314, "ELEMENT_SET_NO": 999, "REV_AT_EPOCH": 86750, "BSTAR": 0.00052070367, "MEAN_MOTION_DOT": 1.087e-05, "MEAN_MOTION_DDOT": 0}, "tle": {"line1": "1 34314U 93036NL  25353.28482644  .00001087  00000+0  52070-3 0  9994", "line2": "2 34314  74.0058 296.7029 0103146  40.8278 121.7164 14.17438356867500"}}, "geometry": {"type": "Point", "coordinates": [130.33097462910203, -41.17815331211452]}}, {"type": "Feature", "properties": {"norad_id": 34316, "name": "COSMOS 2251 DEB", "group": "cosmos-2251-debris", "lat": 34.136586352843686, "lon": 131.59246081368494, "alt_km": 590.143715081218, "timestamp": "2025-12-19T18:58:41.980004+00:00", "meta": {"OBJECT_NAME": "COSMOS 2251 DEB", "OBJECT_ID": "1993-036NN", "EPOCH": "2025-12-18T23:01:26.983776", "MEAN_MOTION": 14.92011768, "ECCENTRICITY": 0.00087608, "INCLINATION": 74.0646, "RA_OF_ASC_NODE": 324.4272, "ARG_OF_PERICENTER": 46.1076, "MEAN_ANOMALY": 314.0829, "EPHEMERIS_TYPE": 0, "CLASSIFICATION_TYPE": "U", "NORAD_CAT_ID": 34316, "ELEMENT_SET_NO": 999, "REV_AT_EPOCH": 89302, "BSTAR": 0.0012273883, "MEAN_MOTION_DOT": 0.00012442, "MEAN_MOTION_DDOT": 0}, "tle": {"line1": "1 34316U 93036NN  25352.95934009  .00012442  00000+0  12274-2 0  9994", "line2": "2 34316  74.0646 324.4272 0008760  46.1076 314.0829 14.92011768893023"}}, "geometry": {"type": "Point", "coordinates": [131.59246081368494, 34.136586352843686]}}, {"type": "Feature", "properties": {"norad_id": 34317, "name": "COSMOS 2251 DEB", "group": "cosmos-2251-debris", "lat": -73.9144580184538, "lon": -65.29755459302721, "alt_km": 1067.3263497537664, "timestamp": "2025-12-19T18:58:41.980014+00:00", "meta": {"OBJECT_NAME": "COSMOS 2251 DEB", "OBJECT_ID": "1993-036NP", "EPOCH": "2025-12-19T03:50:19.925376", "MEAN_MOTION": 13.65128519, "ECCENTRICITY": 0.0336748, "INCLINATION": 73.9244, "RA_OF_ASC_NODE": 25.1887, "ARG_OF_PERICENTER": 13.2059, "MEAN_ANOMALY": 41.8033, "EPHEMERIS_TYPE": 0, "CLASSIFICATION_TYPE": "U", "NORAD_CAT_ID": 34317, "ELEMENT_SET_NO": 999, "REV_AT_EPOCH": 83707, "BSTAR": 0.00042049595, "MEAN_MOTION_DOT": 4.8e-06, "MEAN_MOTION_DDOT": 0}, "tle": {"line1": "1 34317U 93036NP  25353.15995284  .00000480  00000+0  42050-3 0  9995", "line2": "2 34317  73.9244  25.1887 0336748  13.2059  41.8033 13.65128519837076"}}, "geometry": {"type": "Point", "coordinates": [-65.29755459302721, -73.9144580184538]}}, {"type": "Feature", "properties": {"norad_id": 34321, "name": "COSMOS 2251 DEB", "group": "cosmos-2251-debris", "lat": -45.96840633419465, "lon": 125.88130505134677, "alt_km": 723.0412370892236, "timestamp": "2025-12-19T18:58:41.980025+00:00", "meta": {"OBJECT_NAME": "COSMOS 2251 DEB", "OBJECT_ID": "1993-036NT", "EPOCH": "2025-12-18T18:53:41.983872", "MEAN_MOTION": 14.50080757, "ECCENTRICITY": 0.0015949, "INCLINATION": 74.0277, "RA_OF_ASC_NODE": 144.9991, "ARG_OF_PERICENTER": 274.2278, "MEAN_ANOMALY": 201.0433, "EPHEMERIS_TYPE": 0, "CLASSIFICATION_TYPE": "U", "NORAD_CAT_ID": 34321, "ELEMENT_SET_NO": 999, "REV_AT_EPOCH": 88574, "BSTAR": 0.00044155698, "MEAN_MOTION_DOT": 1.688e-05, "MEAN_MOTION_DDOT": 0}, "tle": {"line1": "1 34321U 93036NT  25352.78729148  .00001688  00000+0  44156-3 0  9992", "line2": "2 34321  74.0277 144.9991 0015949 274.2278 201.0433 14.50080757885741"}}, "geometry": {"type": "Point", "coordinates": [125.88130505134677, -45.96840633419465]}}, {"type": "Feature", "properties": {"norad_id": 34323, "name": "COSMOS 2251 DEB", "group": "cosmos-2251-debris", "lat": -46.0162896604015, "lon": -53.37386243549548, "alt_km": 643.0592787056466, "timestamp": "2025-12-19T18:58:41.980035+00:00", "meta": {"OBJECT_NAME": "COSMOS 2251 DEB", "OBJECT_ID": "1993-036NV", "EPOCH": "2025-12-18T09:38:37.006944", "MEAN_MOTION": 14.74606893, "ECCENTRICITY": 0.00582637, "INCLINATION": 73.953, "RA_OF_ASC_NODE": 112.0007, "ARG_OF_PERICENTER": 154.7396, "MEAN_ANOMALY": 262.6259, "EPHEMERIS_TYPE": 0, "CLASSIFICATION_TYPE": "U", "NORAD_CAT_ID": 34323, "ELEMENT_SET_NO": 999, "REV_AT_EPOCH": 88523, "BSTAR": 0.0020464281, "MEAN_MOTION_DOT": 0.00014016, "MEAN_MOTION_DDOT": 0}, "tle": {"line1": "1 34323U 93036NV  25352.40181721  .00014016  00000+0  20464-2 0  9996", "line2": "2 34323  73.9530 112.0007 0058263 154.7396 262.6259 14.74606893885230"}}, "geometry": {"type": "Point", "coordinates": [-53.37386243549548, -46.0162896604015]}}, {"type": "Feature", "properties": {"norad_id": 34325, "name": "COSMOS 2251 DEB", "group": "cosmos-2251-debris", "lat": 68.777136002809, "lon": -47.7921743948433, "alt_km": 874.4177904325843, "timestamp": "2025-12-19T18:58:41.980044+00:00", "meta": {"OBJECT_NAME": "COSMOS 2251 DEB", "OBJECT_ID": "1993-036NX", "EPOCH": "2025-12-18T22:18:04.081824", "MEAN_MOTION": 14.04509128, "ECCENTRICITY": 0.01917812, "INCLINATION": 73.87, "RA_OF_ASC_NODE": 181.9013, "ARG_OF_PERICENTER": 198.0624, "MEAN_ANOMALY": 233.5562, "EPHEMERIS_TYPE": 0, "CLASSIFICATION_TYPE": "U", "NORAD_CAT_ID": 34325, "ELEMENT_SET_NO": 999, "REV_AT_EPOCH": 85602, "BSTAR": 0.0014853659, "MEAN_MOTION_DOT": 2.768e-05, "MEAN_MOTION_DDOT": 0}, "tle": {"line1": "1 34325U 93036NX  25352.92921391  .00002768  00000+0  14854-2 0  9997", "line2": "2 34325  73.8700 181.9013 0191781 198.0624 233.5562 14.04509128856025"}}, "geometry": {"type": "Point", "coordinates": [-47.7921743948433, 68.777136002809]}}]}